NORAD_CAT_ID,OBJECT_NAME,OBJECT_TYPE,EPOCH,MEAN_MOTION,ECCENTRICITY,INCLINATION,RA_OF_ASC_NODE,ARG_OF_PERICENTER,MEAN_ANOMALY,BSTAR,MEAN_MOTION_DOT,MEAN_MOTION_DDOT,TLE_LINE0,TLE_LINE1,TLE_LINE2,SEMIMAJOR_AXIS,PERIOD,APOGEE,PERIGEE,DECAYED
54077.0,STARLINK-5171,PAYLOAD,2023-03-15 16:21:12,15.08880197,9.51e-05,53.2162,177.1132,108.5968,251.5127,0.00050559,7.777e-05,0.0,0 STARLINK-5171,1 54077U 22136AC  23074.68139889  .00007777  00000-0  50559-3 0  9990,2 54077  53.2162 177.1132 0000951 108.5968 251.5127 15.08880197 23058,6917.758,95.435,540.28,538.965,0.0
54077.0,STARLINK-5171,PAYLOAD,2023-03-16 00:18:08,15.08852019,0.0001074,53.2161,175.6273,114.0374,246.0731,-0.00041866,-6.947e-05,0.0,0 STARLINK-5171,1 54077U 22136AC  23075.01259985 -.00006947  00000-0 -41866-3 0  9999,2 54077  53.2161 175.6273 0001074 114.0374 246.0731 15.08852019 23104,6917.844,95.437,540.452,538.966,0.0
54077.0,STARLINK-5171,PAYLOAD,2023-03-16 11:25:51,15.08830123,0.0001935,53.2162,173.5462,111.805,248.3148,-0.00048143,-7.94e-05,0.0,0 STARLINK-5171,1 54077U 22136AC  23075.47629077 -.00007940  00000-0 -48143-3 0  9991,2 54077  53.2162 173.5462 0001935 111.8050 248.3148 15.08830123 23170,6917.911,95.438,541.114,538.437,0.0
54077.0,STARLINK-5171,PAYLOAD,2023-03-16 16:12:01,15.08834479,0.0001612,53.2177,172.6571,99.0302,261.0872,-0.00020838,-3.602e-05,0.0,0 STARLINK-5171,1 54077U 22136AC  23075.67501335 -.00003602  00000-0 -20838-3 0  9991,2 54077  53.2177 172.6571 0001612  99.0302 261.0872 15.08834479 22720,6917.897,95.438,540.877,538.647,0.0
54077.0,STARLINK-5171,PAYLOAD,2023-03-17 06:30:30,15.08811859,0.0001463,53.2171,169.977,110.5977,249.5173,-6.5474e-05,-1.329e-05,0.0,0 STARLINK-5171,1 54077U 22136AC  23076.27118785 -.00001329  00000-0 -65474-4 0  9991,2 54077  53.2171 169.9770 0001463 110.5977 249.5173 15.08811859 23290,6917.966,95.439,540.844,538.819,0.0
54077.0,STARLINK-5171,PAYLOAD,2023-03-17 11:16:40,15.08822915,0.00017,53.2182,169.0879,103.583,256.5351,6.5862e-05,7.6e-06,0.0,0 STARLINK-5171,1 54077U 22136AC  23076.46990905  .00000760  00000-0  65862-4 0  9991,2 54077  53.2182 169.0879 0001700 103.5830 256.5351 15.08822915 22848,6917.933,95.439,540.974,538.622,0.0
54077.0,STARLINK-5171,PAYLOAD,2023-03-18 04:45:54,15.08848666,0.0001514,53.2173,165.8169,94.7817,265.3348,0.00087799,0.00013716,0.0,0 STARLINK-5171,1 54077U 22136AC  23077.19855025  .00013716  00000-0  87799-3 0  9992,2 54077  53.2173 165.8169 0001514  94.7817 265.3348 15.08848666 23434,6917.854,95.437,540.766,538.672,0.0
54077.0,STARLINK-5171,PAYLOAD,2023-03-18 12:42:49,15.08883849,0.0001557,53.2179,164.3319,92.7128,267.4042,0.0016803,0.00026587,0.0,0 STARLINK-5171,1 54077U 22136AC  23077.52974098  .00026587  00000-0  16803-2 0  9998,2 54077  53.2179 164.3319 0001557  92.7128 267.4042 15.08883849 23482,6917.746,95.435,540.688,538.534,0.0
54077.0,STARLINK-5171,PAYLOAD,2023-03-18 22:15:08,15.08874465,0.0001626,53.2179,162.5478,87.9368,272.181,0.0006341,9.828e-05,0.0,0 STARLINK-5171,1 54077U 22136AC  23077.92717721  .00009828  00000-0  63410-3 0  9996,2 54077  53.2179 162.5478 0001626  87.9368 272.1810 15.08874465 23061,6917.775,95.435,540.765,538.515,0.0
54077.0,STARLINK-5171,PAYLOAD,2023-03-19 06:12:03,15.08863407,0.0001917,53.2184,161.0606,85.6637,274.4574,0.00036866,5.588e-05,0.0,0 STARLINK-5171,1 54077U 22136AC  23078.25837564  .00005588  00000-0  36866-3 0  9995,2 54077  53.2184 161.0606 0001917  85.6637 274.4574 15.08863407 23595,6917.809,95.436,541.0,538.348,0.0
54077.0,STARLINK-5171,PAYLOAD,2023-03-19 12:33:36,15.08855363,0.0001065,53.2183,159.872,96.345,263.7664,0.0017521,0.00027718,0.0,0 STARLINK-5171,1 54077U 22136AC  23078.52333442  .00027718  00000-0  17521-2 0  9996,2 54077  53.2183 159.8720 0001065  96.3450 263.7664 15.08855363 23157,6917.833,95.437,540.435,538.962,0.0
54077.0,STARLINK-5171,PAYLOAD,2023-03-20 12:24:23,15.08833431,9.93e-05,53.2174,155.4109,81.1931,278.9173,0.0015644,0.00024693,0.0,0 STARLINK-5171,1 54077U 22136AC  23079.51694370  .00024693  00000-0  15644-2 0  9999,2 54077  53.2174 155.4109 0000993  81.1931 278.9173 15.08833431 23789,6917.9,95.438,540.452,539.079,0.0
54077.0,STARLINK-5171,PAYLOAD,2023-03-20 17:10:33,15.08846522,9.7e-05,53.2169,154.5185,73.849,286.2609,0.0012324,0.00019384,0.0,0 STARLINK-5171,1 54077U 22136AC  23079.71566338  .00019384  00000-0  12324-2 0  9996,2 54077  53.2169 154.5185 0000970  73.8490 286.2609 15.08846522 23332,6917.86,95.437,540.396,539.054,0.0
54077.0,STARLINK-5171,PAYLOAD,2023-03-20 21:56:42,15.0884128,0.0001204,53.2168,153.6247,59.7001,300.411,0.00069416,0.00010777,0.0,0 STARLINK-5171,1 54077U 22136AC  23079.91438530  .00010777  00000-0  69416-3 0  9992,2 54077  53.2168 153.6247 0001204  59.7001 300.4110 15.08841280 23840,6917.876,95.437,540.574,538.909,0.0
54077.0,STARLINK-5171,PAYLOAD,2023-03-21 12:15:10,15.08852549,0.0001326,53.2169,150.9488,62.0413,298.0714,0.00066339,0.00010289,0.0,0 STARLINK-5171,1 54077U 22136AC  23080.51054276  .00010289  00000-0  66339-3 0  9990,2 54077  53.2169 150.9488 0001326  62.0413 298.0714 15.08852549 23456,6917.842,95.437,540.624,538.79,0.0
54077.0,STARLINK-5171,PAYLOAD,2023-03-21 21:47:29,15.08846178,0.000119,53.2168,149.1678,75.774,284.3384,0.00040683,6.194e-05,0.0,0 STARLINK-5171,1 54077U 22136AC  23080.90798271  .00006194  00000-0  40683-3 0  9997,2 54077  53.2168 149.1678 0001190  75.7740 284.3384 15.08846178 23518,6917.862,95.437,540.55,538.903,0.0
54077.0,STARLINK-5171,PAYLOAD,2023-03-22 10:30:35,15.0884098,0.0001457,53.2177,146.7847,75.3365,284.7789,0.00010585,1.397e-05,0.0,0 STARLINK-5171,1 54077U 22136AC  23081.43790522  .00001397  00000-0  10585-3 0  9995,2 54077  53.2177 146.7847 0001457  75.3365 284.7789 15.08840980 24074,6917.877,95.437,540.75,538.734,0.0
54077.0,STARLINK-5171,PAYLOAD,2023-03-23 10:21:21,15.08849384,0.0001506,53.2179,142.3239,86.6783,273.4381,0.00029716,4.446e-05,0.0,0 STARLINK-5171,1 54077U 22136AC  23082.43150174  .00004446  00000-0  29716-3 0  9993,2 54077  53.2179 142.3239 0001506  86.6783 273.4381 15.08849384 23740,6917.852,95.437,540.759,538.675,0.0
54077.0,STARLINK-5171,PAYLOAD,2023-03-23 21:29:03,15.08859589,0.0001532,53.217,140.2477,72.0118,288.1041,0.00041941,6.397e-05,0.0,0 STARLINK-5171,1 54077U 22136AC  23082.89517749  .00006397  00000-0  41941-3 0  9999,2 54077  53.2170 140.2477 0001532  72.0118 288.1041 15.08859589 23814,6917.821,95.436,540.745,538.626,0.0
54077.0,STARLINK-5171,PAYLOAD,2023-03-24 03:50:35,15.08874681,0.0001411,53.2164,139.0563,93.1573,266.9581,0.00099612,0.00015616,0.0,0 STARLINK-5171,1 54077U 22136AC  23083.16013455  .00015616  00000-0  99612-3 0  9997,2 54077  53.2164 139.0563 0001411  93.1573 266.9581 15.08874681 24335,6917.774,95.435,540.615,538.663,0.0
54077.0,STARLINK-5171,PAYLOAD,2023-03-24 08:36:44,15.0889325,0.0001357,53.2165,138.1654,86.6799,273.4349,0.0013219,0.00020843,0.0,0 STARLINK-5171,1 54077U 22136AC  23083.35884592  .00020843  00000-0  13219-2 0  9992,2 54077  53.2165 138.1654 0001357  86.6799 273.4349 15.08893250 24364,6917.718,95.434,540.521,538.644,0.0
54077.0,STARLINK-5171,PAYLOAD,2023-03-25 03:41:22,15.08845439,0.0001234,53.2155,134.5961,85.2842,274.8291,6.271e-05,7.1e-06,0.0,0 STARLINK-5171,1 54077U 22136AC  23084.15373344  .00000710  00000-0  62710-4 0  9992,2 54077  53.2155 134.5961 0001234  85.2842 274.8291 15.08845439 24482,6917.864,95.437,540.582,538.875,0.0
54077.0,STARLINK-5171,PAYLOAD,2023-03-25 10:02:55,15.08817659,0.0001048,53.2165,133.4038,89.3573,270.7539,-0.0005614,-9.206e-05,0.0,0 STARLINK-5171,1 54077U 22136AC  23084.41869907 -.00009206  00000-0 -56140-3 0  9996,2 54077  53.2165 133.4038 0001048  89.3573 270.7539 15.08817659 24523,6917.949,95.439,540.539,539.089,0.0
54077.0,STARLINK-5171,PAYLOAD,2023-03-25 19:35:15,15.08811516,0.0001011,53.2165,131.6197,84.7373,275.3734,-0.00021729,-3.741e-05,0.0,0 STARLINK-5171,1 54077U 22136AC  23084.81614872 -.00003741  00000-0 -21729-3 0  9992,2 54077  53.2165 131.6197 0001011  84.7373 275.3734 15.08811516 24104,6917.967,95.439,540.532,539.133,0.0
54077.0,STARLINK-5171,PAYLOAD,2023-03-26 03:32:10,15.08825941,8.29e-05,53.2177,130.132,72.8181,287.2902,0.000356,5.38e-05,0.0,0 STARLINK-5171,1 54077U 22136AC  23085.14734881  .00005380  00000-0  35600-3 0  9994,2 54077  53.2177 130.1320 0000829  72.8181 287.2902 15.08825941 24634,6917.923,95.438,540.362,539.215,0.0
54077.0,STARLINK-5171,PAYLOAD,2023-03-26 11:29:06,15.08847381,0.0001129,53.2177,128.6487,64.3265,295.7844,0.0010248,0.00016063,0.0,0 STARLINK-5171,1 54077U 22136AC  23085.47854947  .00016063  00000-0  10248-2 0  9996,2 54077  53.2177 128.6487 0001129  64.3265 295.7844 15.08847381 24689,6917.858,95.437,540.504,538.942,0.0
54077.0,STARLINK-5171,PAYLOAD,2023-03-26 19:26:02,15.08843769,0.0001157,53.2179,127.1611,91.8706,268.2419,0.00061509,9.516e-05,0.0,0 STARLINK-5171,1 54077U 22136AC  23085.80975147  .00009516  00000-0  61509-3 0  9991,2 54077  53.2179 127.1611 0001157  91.8706 268.2419 15.08843769 24735,6917.869,95.437,540.534,538.933,0.0
54077.0,STARLINK-5171,PAYLOAD,2023-03-27 11:19:53,15.08846753,0.0001222,53.2177,124.1892,79.2777,280.8353,0.00037751,5.726e-05,0.0,0 STARLINK-5171,1 54077U 22136AC  23086.47215019  .00005726  00000-0  37751-3 0  9991,2 54077  53.2177 124.1892 0001222  79.2777 280.8353 15.08846753 24836,6917.86,95.437,540.57,538.879,0.0
54077.0,STARLINK-5171,PAYLOAD,2023-03-27 19:16:49,15.08842142,9.21e-05,53.2167,122.703,77.4312,282.6783,0.00019388,2.799e-05,0.0,0 STARLINK-5171,1 54077U 22136AC  23086.80335004  .00002799  00000-0  19388-3 0  9998,2 54077  53.2167 122.7030 0000921  77.4312 282.6783 15.08842142 24401,6917.874,95.437,540.376,539.102,0.0
54077.0,STARLINK-5171,PAYLOAD,2023-03-28 06:24:31,15.08839853,0.0001259,53.2168,120.6196,77.7725,282.3408,6.8052e-05,7.95e-06,0.0,0 STARLINK-5171,1 54077U 22136AC  23087.26703208  .00000795  00000-0  68052-4 0  9991,2 54077  53.2168 120.6196 0001259  77.7725 282.3408 15.08839853 24954,6917.881,95.438,540.617,538.875,0.0
